{
  "type": "FeatureCollection",
  "features": [
    {
      "type": "Feature",
      "properties": {
        "norad_id": 30505,
        "name": "FENGYUN 1C DEB",
        "group": "fengyun-1c-debris",
        "lat": -80.9936068821834,
        "lon": 161.10907952239322,
        "alt_km": 804.4915103338171,
        "timestamp": "2025-12-24T18:55:56.345138+00:00",
        "meta_object_name": "FENGYUN 1C DEB",
        "meta_object_id": "1999-025AHT",
        "meta_epoch": "2025-12-23T11:50:32.743392",
        "meta_mean_motion": 14.22108274,
        "meta_eccentricity": 0.00642587,
        "meta_inclination": 98.9253,
        "meta_ra_of_asc_node": 77.2827,
        "meta_arg_of_pericenter": 211.6093,
        "meta_mean_anomaly": 270.6258,
        "meta_ephemeris_type": 0,
        "meta_classification_type": "U",
        "meta_norad_cat_id": 30505,
        "meta_element_set_no": 999,
        "meta_rev_at_epoch": 97076,
        "meta_bstar": 0.0016025341,
        "meta_mean_motion_dot": 3.579e-05,
        "meta_mean_motion_ddot": 0,
        "tle_line1": "1 30505U 99025AHT 25357.49343453  .00003579  00000+0  16025-2 0  9994",
        "tle_line2": "2 30505  98.9253  77.2827 0064258 211.6093 270.6258 14.22108274970761"
      },
      "geometry": {
        "type": "Point",
        "coordinates": [
          161.10907952239322,
          -80.9936068821834
        ]
      }
    },
    {
      "type": "Feature",
      "properties": {
        "norad_id": 30506,
        "name": "FENGYUN 1C DEB",
        "group": "fengyun-1c-debris",
        "lat": 75.42913216151547,
        "lon": -32.85303444472763,
        "alt_km": 885.2321975884342,
        "timestamp": "2025-12-24T18:55:56.345148+00:00",
        "meta_object_name": "FENGYUN 1C DEB",
        "meta_object_id": "1999-025AHU",
        "meta_epoch": "2025-12-24T06:42:15.949728",
        "meta_mean_motion": 14.08663482,
        "meta_eccentricity": 0.00698186,
        "meta_inclination": 98.757,
        "meta_ra_of_asc_node": 3.0207,
        "meta_arg_of_pericenter": 315.1783,
        "meta_mean_anomaly": 60.1862,
        "meta_ephemeris_type": 0,
        "meta_classification_type": "U",
        "meta_norad_cat_id": 30506,
        "meta_element_set_no": 999,
        "meta_rev_at_epoch": 96984,
        "meta_bstar": 0.00025500617,
        "meta_mean_motion_dot": 4.05e-06,
        "meta_mean_motion_ddot": 0,
        "tle_line1": "1 30506U 99025AHU 25358.27935127  .00000405  00000+0  25501-3 0  9992",
        "tle_line2": "2 30506  98.7570   3.0207 0069818 315.1783  60.1862 14.08663482969845"
      },
      "geometry": {
        "type": "Point",
        "coordinates": [
          -32.85303444472763,
          75.42913216151547
        ]
      }
    },
    {
      "type": "Feature",
      "properties": {
        "norad_id": 30507,
        "name": "FENGYUN 1C DEB",
        "group": "fengyun-1c-debris",
        "lat": 29.591163932290062,
        "lon": 58.1886286283905,
        "alt_km": 881.2574305759108,
        "timestamp": "2025-12-24T18:55:56.345158+00:00",
        "meta_object_name": "FENGYUN 1C DEB",
        "meta_object_id": "1999-025AHV",
        "meta_epoch": "2025-12-22T11:18:45.124704",
        "meta_mean_motion": 14.13218957,
        "meta_eccentricity": 0.01284187,
        "meta_inclination": 99.0129,
        "meta_ra_of_asc_node": 61.0259,
        "meta_arg_of_pericenter": 149.106,
        "meta_mean_anomaly": 338.4187,
        "meta_ephemeris_type": 0,
        "meta_classification_type": "U",
        "meta_norad_cat_id": 30507,
        "meta_element_set_no": 999,
        "meta_rev_at_epoch": 96635,
        "meta_bstar": 0.00099570229,
        "meta_mean_motion_dot": 1.972e-05,
        "meta_mean_motion_ddot": 0,
        "tle_line1": "1 30507U 99025AHV 25356.47135561  .00001972  00000+0  99570-3 0  9994",
        "tle_line2": "2 30507  99.0129  61.0259 0128418 149.1060 338.4187 14.13218957966359"
      },
      "geometry": {
        "type": "Point",
        "coordinates": [
          58.1886286283905,
          29.591163932290062
        ]
      }
    },
    {
      "type": "Feature",
      "properties": {
        "norad_id": 30509,
        "name": "FENGYUN 1C DEB",
        "group": "fengyun-1c-debris",
        "lat": -35.74269695716513,
        "lon": -123.9642135970827,
        "alt_km": 842.1590529270698,
        "timestamp": "2025-12-24T18:55:56.345168+00:00",
        "meta_object_name": "FENGYUN 1C DEB",
        "meta_object_id": "1999-025AHX",
        "meta_epoch": "2025-12-24T02:45:50.090976",
        "meta_mean_motion": 14.07725961,
        "meta_eccentricity": 0.01024574,
        "meta_inclination": 98.4648,
        "meta_ra_of_asc_node": 229.2516,
        "meta_arg_of_pericenter": 31.4768,
        "meta_mean_anomaly": 121.2979,
        "meta_ephemeris_type": 0,
        "meta_classification_type": "U",
        "meta_norad_cat_id": 30509,
        "meta_element_set_no": 999,
        "meta_rev_at_epoch": 95882,
        "meta_bstar": 0.0022392549,
        "meta_mean_motion_dot": 3.936e-05,
        "meta_mean_motion_ddot": 0,
        "tle_line1": "1 30509U 99025AHX 25358.11516309  .00003936  00000+0  22393-2 0  9992",
        "tle_line2": "2 30509  98.4648 229.2516 0102457  31.4768 121.2979 14.07725961958828"
      },
      "geometry": {
        "type": "Point",
        "coordinates": [
          -123.9642135970827,
          -35.74269695716513
        ]
      }
    },
    {
      "type": "Feature",
      "properties": {
        "norad_id": 30510,
        "name": "FENGYUN 1C DEB",
        "group": "fengyun-1c-debris",
        "lat": -60.25732325960105,
        "lon": 174.64112465184945,
        "alt_km": 874.4924819138614,
        "timestamp": "2025-12-24T18:55:56.345178+00:00",
        "meta_object_name": "FENGYUN 1C DEB",
        "meta_object_id": "1999-025AHY",
        "meta_epoch": "2025-12-23T23:22:40.714176",
        "meta_mean_motion": 14.12903372,
        "meta_eccentricity": 0.0078753,
        "meta_inclination": 99.2449,
        "meta_ra_of_asc_node": 10.3622,
        "meta_arg_of_pericenter": 135.0072,
        "meta_mean_anomaly": 283.6993,
        "meta_ephemeris_type": 0,
        "meta_classification_type": "U",
        "meta_norad_cat_id": 30510,
        "meta_element_set_no": 999,
        "meta_rev_at_epoch": 96733,
        "meta_bstar": 0.0014386,
        "meta_mean_motion_dot": 2.712e-05,
        "meta_mean_motion_ddot": 0,
        "tle_line1": "1 30510U 99025AHY 25357.97408234  .00002712  00000+0  14386-2 0  9998",
        "tle_line2": "2 30510  99.2449  10.3622 0078753 135.0072 283.6993 14.12903372967330"
      },
      "geometry": {
        "type": "Point",
        "coordinates": [
          174.64112465184945,
          -60.25732325960105
        ]
      }
    },
    {
      "type": "Feature",
      "properties": {
        "norad_id": 30514,
        "name": "FENGYUN 1C DEB",
        "group": "fengyun-1c-debris",
        "lat": -56.35986218076407,
        "lon": -170.8452614236276,
        "alt_km": 908.7631758266307,
        "timestamp": "2025-12-24T18:55:56.345187+00:00",
        "meta_object_name": "FENGYUN 1C DEB",
        "meta_object_id": "1999-025AJC",
        "meta_epoch": "2025-12-24T01:05:46.871232",
        "meta_mean_motion": 14.34390648,
        "meta_eccentricity": 0.017419,
        "meta_inclination": 98.4121,
        "meta_ra_of_asc_node": 21.2803,
        "meta_arg_of_pericenter": 60.6461,
        "meta_mean_anomaly": 301.1997,
        "meta_ephemeris_type": 0,
        "meta_classification_type": "U",
        "meta_norad_cat_id": 30514,
        "meta_element_set_no": 999,
        "meta_rev_at_epoch": 98387,
        "meta_bstar": 0.00046393045,
        "meta_mean_motion_dot": 1.502e-05,
        "meta_mean_motion_ddot": 0,
        "tle_line1": "1 30514U 99025AJC 25358.04568138  .00001502  00000+0  46393-3 0  9991",
        "tle_line2": "2 30514  98.4121  21.2803 0174190  60.6461 301.1997 14.34390648983878"
      },
      "geometry": {
        "type": "Point",
        "coordinates": [
          -170.8452614236276,
          -56.35986218076407
        ]
      }
    },
    {
      "type": "Feature",
      "properties": {
        "norad_id": 30515,
        "name": "FENGYUN 1C DEB",
        "group": "fengyun-1c-debris",
        "lat": -49.617391018381284,
        "lon": 43.357814902405686,
        "alt_km": 1392.9619416981323,
        "timestamp": "2025-12-24T18:55:56.345197+00:00",
        "meta_object_name": "FENGYUN 1C DEB",
        "meta_object_id": "1999-025AJD",
        "meta_epoch": "2025-12-23T08:35:59.927136",
        "meta_mean_motion": 13.63827177,
        "meta_eccentricity": 0.04970055,
        "meta_inclination": 98.5092,
        "meta_ra_of_asc_node": 232.2372,
        "meta_arg_of_pericenter": 46.5465,
        "meta_mean_anomaly": 4.7977,
        "meta_ephemeris_type": 0,
        "meta_classification_type": "U",
        "meta_norad_cat_id": 30515,
        "meta_element_set_no": 999,
        "meta_rev_at_epoch": 93475,
        "meta_bstar": 0.00097294919,
        "meta_mean_motion_dot": 1.759e-05,
        "meta_mean_motion_ddot": 0,
        "tle_line1": "1 30515U 99025AJD 25357.35833249  .00001759  00000+0  97295-3 0  9994",
        "tle_line2": "2 30515  98.5092 232.2372 0497005  46.5465   4.7977 13.63827177934752"
      },
      "geometry": {
        "type": "Point",
        "coordinates": [
          43.357814902405686,
          -49.617391018381284
        ]
      }
    }
  ]
}